{"type":"FeatureCollection","features":[{"type":"Feature","properties":{"osm_id":"62114869","pressure":"alta","reason":"comercio=mall; nombre=Centro Comercial Milenio Plaza  ","name":"Centro Comercial Milenio Plaza","source":"OpenStreetMap (consulta 2026-09-30)"},"geometry":{"type":"Polygon","coordinates":[[[-74.1693816,4.6312118],[-74.1694955,4.6314187],[-74.1693746,4.6314848],[-74.1692,4.6315802],[-74.1690996,4.6313977],[-74.1689388,4.6314855],[-74.1688555,4.6313341],[-74.1688374,4.6313011],[-74.1686741,4.631004],[-74.1686493,4.6310176],[-74.1685763,4.6308845],[-74.1687198,4.6308062],[-74.1687099,4.6307881],[-74.1687654,4.6307579],[-74.168751,4.6307317],[-74.1684064,4.6309194],[-74.1681749,4.6304974],[-74.1682857,4.630437],[-74.1683673,4.6303925],[-74.1686442,4.6302417],[-74.1687029,4.6302098],[-74.1687305,4.6301947],[-74.168732,4.6300411],[-74.1688376,4.629983],[-74.1689457,4.6299235],[-74.1691012,4.6298379],[-74.1691634,4.6299502],[-74.1691223,4.6299729],[-74.1692276,4.6301635],[-74.1694157,4.6300603],[-74.169435,4.6300953],[-74.1695079,4.6302272],[-74.1694058,4.6302832],[-74.169452,4.630367],[-74.1695656,4.6303049],[-74.1699068,4.6309247],[-74.1693816,4.6312118]]]}},{"type":"Feature","properties":{"osm_id":"123049049","pressure":"alta","reason":"uso=commercial; nombre=Abastos  ","name":"Abastos","source":"OpenStreetMap (consulta 2026-09-30)"},"geometry":{"type":"Polygon","coordinates":[[[-74.1561272,4.6328612],[-74.1574198,4.6331082],[-74.1575331,4.6330685],[-74.1575412,4.6330691],[-74.1575626,4.6331031],[-74.1575948,4.6331717],[-74.1575931,4.6332001],[-74.1575995,4.6332118],[-74.1576263,4.6332215],[-74.1588409,4.6334839],[-74.1588624,4.6334694],[-74.1588755,4.6334481],[-74.1588932,4.6333939],[-74.1589623,4.6333974],[-74.1590083,4.6334037],[-74.1590158,4.6334643],[-74.1590257,4.6334923],[-74.159051,4.6335203],[-74.1606697,4.6339073],[-74.1636742,4.6313428],[-74.1634994,4.6311423],[-74.163447,4.6310744],[-74.1629732,4.6305146],[-74.1625209,4.6299539],[-74.1624273,4.6298637],[-74.1623847,4.6298318],[-74.1623155,4.6297855],[-74.162186,4.6297574],[-74.1621188,4.6297428],[-74.1617278,4.6290829],[-74.1613481,4.6284236],[-74.1610854,4.6279675],[-74.1609291,4.6279598],[-74.160739,4.6278007],[-74.1583309,4.6276141],[-74.1582997,4.6276451],[-74.1582038,4.6277402],[-74.1581656,4.6277685],[-74.1580735,4.627788],[-74.1571828,4.6287506],[-74.1571508,4.6287844],[-74.1562612,4.629748],[-74.1562158,4.6298519],[-74.1561813,4.6299067],[-74.1555528,4.6306344],[-74.1556491,4.6306871],[-74.155733,4.6307057],[-74.1556665,4.6314779],[-74.1559178,4.6315012],[-74.1559164,4.6315732],[-74.1559075,4.6316712],[-74.1561875,4.6316943],[-74.1561609,4.6320862],[-74.156154,4.6322306],[-74.1561531,4.6323197],[-74.1561394,4.6325125],[-74.1561272,4.6328612]]]}},{"type":"Feature","properties":{"osm_id":"222373348","pressure":"alta","reason":"comercio=mall; nombre=Claro Telefonia Movil  ","name":"Claro Telefonia Movil","source":"OpenStreetMap (consulta 2026-09-30)"},"geometry":{"type":"Polygon","coordinates":[[[-74.1669391,4.620785],[-74.166968,4.6208456],[-74.1670552,4.6208043],[-74.1672195,4.6211493],[-74.1673989,4.6210644],[-74.1672364,4.6207233],[-74.1673102,4.6206884],[-74.1672795,4.6206239],[-74.1669391,4.620785]]]}},{"type":"Feature","properties":{"osm_id":"261684631","pressure":"alta","reason":"edificio=warehouse; nombre=  ","name":"","source":"OpenStreetMap (consulta 2026-09-30)"},"geometry":{"type":"Polygon","coordinates":[[[-74.1612688,4.6301761],[-74.1612927,4.629861],[-74.1594532,4.6297224],[-74.1594293,4.6300375],[-74.1612688,4.6301761]]]}},{"type":"Feature","properties":{"osm_id":"261684632","pressure":"alta","reason":"edificio=warehouse; nombre=  ","name":"","source":"OpenStreetMap (consulta 2026-09-30)"},"geometry":{"type":"Polygon","coordinates":[[[-74.1592333,4.6288598],[-74.1582787,4.6287911],[-74.1583015,4.6284758],[-74.1592561,4.6285444],[-74.1592333,4.6288598]]]}},{"type":"Feature","properties":{"osm_id":"261684633","pressure":"alta","reason":"edificio=warehouse; nombre=  ","name":"","source":"OpenStreetMap (consulta 2026-09-30)"},"geometry":{"type":"Polygon","coordinates":[[[-74.1592773,4.62828],[-74.1583227,4.6282113],[-74.1583455,4.627896],[-74.1593001,4.6279646],[-74.1592773,4.62828]]]}},{"type":"Feature","properties":{"osm_id":"261684635","pressure":"alta","reason":"edificio=warehouse; nombre=  ","name":"","source":"OpenStreetMap (consulta 2026-09-30)"},"geometry":{"type":"Polygon","coordinates":[[[-74.1591211,4.6299657],[-74.159145,4.6296506],[-74.1573055,4.629512],[-74.1572816,4.6298272],[-74.1591211,4.6299657]]]}},{"type":"Feature","properties":{"osm_id":"261684637","pressure":"alta","reason":"edificio=warehouse; nombre=  ","name":"","source":"OpenStreetMap (consulta 2026-09-30)"},"geometry":{"type":"Polygon","coordinates":[[[-74.1604749,4.6289524],[-74.1595203,4.6288837],[-74.1595432,4.6285684],[-74.1604978,4.628637],[-74.1604749,4.6289524]]]}},{"type":"Feature","properties":{"osm_id":"261684644","pressure":"alta","reason":"edificio=warehouse; nombre=  ","name":"","source":"OpenStreetMap (consulta 2026-09-30)"},"geometry":{"type":"Polygon","coordinates":[[[-74.1613356,4.6295806],[-74.1613596,4.6293112],[-74.159573,4.6291536],[-74.159549,4.6294227],[-74.1613356,4.6295806]]]}},{"type":"Feature","properties":{"osm_id":"261684645","pressure":"alta","reason":"edificio=warehouse; nombre=  ","name":"","source":"OpenStreetMap (consulta 2026-09-30)"},"geometry":{"type":"Polygon","coordinates":[[[-74.159153,4.6293844],[-74.1591769,4.6290693],[-74.1573374,4.6289307],[-74.1573135,4.6292459],[-74.159153,4.6293844]]]}},{"type":"Feature","properties":{"osm_id":"261684646","pressure":"alta","reason":"edificio=warehouse; nombre=  ","name":"","source":"OpenStreetMap (consulta 2026-09-30)"},"geometry":{"type":"Polygon","coordinates":[[[-74.1605385,4.6284067],[-74.1595839,4.628338],[-74.1596067,4.6280227],[-74.1605613,4.6280913],[-74.1605385,4.6284067]]]}},{"type":"Feature","properties":{"osm_id":"319610146","pressure":"alta","reason":"comercio=supermarket; nombre=Surtimax  ","name":"Surtimax","source":"OpenStreetMap (consulta 2026-09-30)"},"geometry":{"type":"Polygon","coordinates":[[[-74.1550253,4.6340013],[-74.1547413,4.6337215],[-74.1544554,4.6340131],[-74.1547364,4.6342896],[-74.1550253,4.6340013]]]}},{"type":"Feature","properties":{"osm_id":"319611996","pressure":"alta","reason":"actividad=marketplace; nombre=Las Flores  ","name":"Las Flores","source":"OpenStreetMap (consulta 2026-09-30)"},"geometry":{"type":"Polygon","coordinates":[[[-74.1565913,4.6340481],[-74.1567505,4.6332427],[-74.1556659,4.6330258],[-74.1555173,4.6338167],[-74.1560358,4.6339402],[-74.1559217,4.6346088],[-74.1563102,4.6349921],[-74.1564542,4.6348393],[-74.15654,4.6346923],[-74.1565642,4.6345693],[-74.1565544,4.6343634],[-74.1565913,4.6340481]]]}},{"type":"Feature","properties":{"osm_id":"479824089","pressure":"alta","reason":"edificio=warehouse; nombre=  ","name":"","source":"OpenStreetMap (consulta 2026-09-30)"},"geometry":{"type":"Polygon","coordinates":[[[-74.1613999,4.6328255],[-74.1614589,4.632903],[-74.1605926,4.6336382],[-74.1600266,4.633558],[-74.160032,4.6334805],[-74.1591334,4.6333976],[-74.1591817,4.632617],[-74.1613999,4.6328255]]]}},{"type":"Feature","properties":{"osm_id":"479824093","pressure":"alta","reason":"edificio=warehouse; nombre=  ","name":"","source":"OpenStreetMap (consulta 2026-09-30)"},"geometry":{"type":"Polygon","coordinates":[[[-74.1592121,4.6323779],[-74.1592486,4.6319489],[-74.160099,4.6320208],[-74.1600625,4.6324497],[-74.1592121,4.6323779]]]}},{"type":"Feature","properties":{"osm_id":"479824098","pressure":"alta","reason":"edificio=warehouse; nombre=  ","name":"","source":"OpenStreetMap (consulta 2026-09-30)"},"geometry":{"type":"Polygon","coordinates":[[[-74.1620048,4.6326222],[-74.1620171,4.6324828],[-74.1620943,4.6324895],[-74.1621223,4.6321705],[-74.1602231,4.6320048],[-74.1601962,4.6323107],[-74.1602625,4.6323164],[-74.1602491,4.6324691],[-74.1620048,4.6326222]]]}},{"type":"Feature","properties":{"osm_id":"541360369","pressure":"media","reason":"edificio=commercial; nombre=  ","name":"","source":"OpenStreetMap (consulta 2026-09-30)"},"geometry":{"type":"Polygon","coordinates":[[[-74.1595621,4.6214415],[-74.1596141,4.6213855],[-74.1595466,4.6213231],[-74.1594945,4.6213791],[-74.1595621,4.6214415]]]}},{"type":"Feature","properties":{"osm_id":"542127163","pressure":"alta","reason":"comercio=department_store; nombre=Tienda D  ","name":"Tienda D","source":"OpenStreetMap (consulta 2026-09-30)"},"geometry":{"type":"Polygon","coordinates":[[[-74.1631326,4.6261033],[-74.1631859,4.6260457],[-74.1631321,4.6259963],[-74.1630788,4.6260539],[-74.1631326,4.6261033]]]}},{"type":"Feature","properties":{"osm_id":"542127164","pressure":"alta","reason":"comercio=supermarket; nombre=Justo & Bueno  ","name":"Justo & Bueno","source":"OpenStreetMap (consulta 2026-09-30)"},"geometry":{"type":"Polygon","coordinates":[[[-74.1629778,4.6248962],[-74.1630472,4.6248326],[-74.1629062,4.6246797],[-74.1628367,4.6247433],[-74.1629778,4.6248962]]]}},{"type":"Feature","properties":{"osm_id":"543160704","pressure":"media","reason":"edificio=commercial; actividad=dentist; nombre=Odontolodia  ","name":"Odontolodia","source":"OpenStreetMap (consulta 2026-09-30)"},"geometry":{"type":"Polygon","coordinates":[[[-74.1601252,4.6207098],[-74.1600637,4.6207483],[-74.1601682,4.6209144],[-74.1602297,4.6208759],[-74.1601252,4.6207098]]]}},{"type":"Feature","properties":{"osm_id":"543160705","pressure":"media","reason":"edificio=retail; actividad=restaurant; nombre=Surtidora de Aves la 79  ","name":"Surtidora de Aves la 79","source":"OpenStreetMap (consulta 2026-09-30)"},"geometry":{"type":"Polygon","coordinates":[[[-74.1602584,4.6206357],[-74.1602137,4.6206618],[-74.1603017,4.6208116],[-74.1603463,4.6207856],[-74.1602584,4.6206357]]]}},{"type":"Feature","properties":{"osm_id":"543160706","pressure":"media","reason":"edificio=commercial; nombre=  ","name":"","source":"OpenStreetMap (consulta 2026-09-30)"},"geometry":{"type":"Polygon","coordinates":[[[-74.160314,4.6205994],[-74.160395,4.6205506],[-74.1605047,4.6207315],[-74.1604238,4.6207803],[-74.160314,4.6205994]]]}},{"type":"Feature","properties":{"osm_id":"543160707","pressure":"media","reason":"edificio=commercial; nombre=  ","name":"","source":"OpenStreetMap (consulta 2026-09-30)"},"geometry":{"type":"Polygon","coordinates":[[[-74.1607834,4.6205558],[-74.1606925,4.6203932],[-74.1608716,4.6202937],[-74.1609626,4.6204563],[-74.1607834,4.6205558]]]}},{"type":"Feature","properties":{"osm_id":"543160708","pressure":"media","reason":"edificio=retail; comercio=lottery; nombre=Paga Todo  ","name":"Paga Todo","source":"OpenStreetMap (consulta 2026-09-30)"},"geometry":{"type":"Polygon","coordinates":[[[-74.1610891,4.6201563],[-74.1610414,4.620187],[-74.161136,4.620333],[-74.1611837,4.6203023],[-74.1610891,4.6201563]]]}},{"type":"Feature","properties":{"osm_id":"543160709","pressure":"media","reason":"edificio=retail; actividad=casino; nombre=Casino Wilo Play  ","name":"Casino Wilo Play","source":"OpenStreetMap (consulta 2026-09-30)"},"geometry":{"type":"Polygon","coordinates":[[[-74.1612354,4.6200819],[-74.1611859,4.6201132],[-74.1612844,4.6202681],[-74.1613339,4.6202368],[-74.1612354,4.6200819]]]}},{"type":"Feature","properties":{"osm_id":"543169687","pressure":"media","reason":"edificio=retail; actividad=pharmacy; nombre=Drogueria Hamburgo Dc  ","name":"Drogueria Hamburgo Dc","source":"OpenStreetMap (consulta 2026-09-30)"},"geometry":{"type":"Polygon","coordinates":[[[-74.155402,4.6216195],[-74.1553342,4.6215563],[-74.1554144,4.6214708],[-74.1554822,4.6215339],[-74.155402,4.6216195]]]}},{"type":"Feature","properties":{"osm_id":"543183066","pressure":"media","reason":"edificio=commercial; nombre=  ","name":"","source":"OpenStreetMap (consulta 2026-09-30)"},"geometry":{"type":"Polygon","coordinates":[[[-74.1623888,4.634809],[-74.1623472,4.6347673],[-74.1623081,4.634806],[-74.1623165,4.6348144],[-74.1623497,4.6348477],[-74.1623888,4.634809]]]}},{"type":"Feature","properties":{"osm_id":"543183067","pressure":"media","reason":"edificio=retail; nombre=  ","name":"","source":"OpenStreetMap (consulta 2026-09-30)"},"geometry":{"type":"Polygon","coordinates":[[[-74.162315,4.6348822],[-74.1622818,4.6348489],[-74.1623165,4.6348144],[-74.1623497,4.6348477],[-74.162315,4.6348822]]]}},{"type":"Feature","properties":{"osm_id":"543195312","pressure":"media","reason":"edificio=commercial; nombre=  ","name":"","source":"OpenStreetMap (consulta 2026-09-30)"},"geometry":{"type":"Polygon","coordinates":[[[-74.1631744,4.6349315],[-74.1630448,4.6348031],[-74.1628726,4.6349759],[-74.1629091,4.6350175],[-74.1630007,4.6351056],[-74.1631744,4.6349315]]]}},{"type":"Feature","properties":{"osm_id":"543195313","pressure":"media","reason":"edificio=commercial; nombre=  ","name":"","source":"OpenStreetMap (consulta 2026-09-30)"},"geometry":{"type":"Polygon","coordinates":[[[-74.1629091,4.6350175],[-74.1628304,4.635086],[-74.1627743,4.635022],[-74.1627782,4.6350078],[-74.1628488,4.634948],[-74.1628726,4.6349759],[-74.1629091,4.6350175]]]}},{"type":"Feature","properties":{"osm_id":"543423981","pressure":"alta","reason":"comercio=supermarket; nombre=D1  ","name":"D1","source":"OpenStreetMap (consulta 2026-09-30)"},"geometry":{"type":"Polygon","coordinates":[[[-74.1666829,4.6319641],[-74.1665193,4.6317837],[-74.1664396,4.6318555],[-74.1666033,4.6320359],[-74.1666829,4.6319641]]]}},{"type":"Feature","properties":{"osm_id":"642986038","pressure":"alta","reason":"comercio=supermarket; nombre=Metro Tintal  ","name":"Metro Tintal","source":"OpenStreetMap (consulta 2026-09-30)"},"geometry":{"type":"Polygon","coordinates":[[[-74.1693816,4.6312118],[-74.1689398,4.6303662],[-74.169435,4.6300953],[-74.1695079,4.6302272],[-74.1694058,4.6302832],[-74.169452,4.630367],[-74.1695656,4.6303049],[-74.1699068,4.6309247],[-74.1693816,4.6312118]]]}},{"type":"Feature","properties":{"osm_id":"645764428","pressure":"media","reason":"uso=retail; nombre=  ","name":"","source":"OpenStreetMap (consulta 2026-09-30)"},"geometry":{"type":"Polygon","coordinates":[[[-74.169961,4.6336679],[-74.1698014,4.6333969],[-74.1697357,4.6334365],[-74.1698906,4.6337078],[-74.169961,4.6336679]]]}},{"type":"Feature","properties":{"osm_id":"645764429","pressure":"media","reason":"uso=retail; nombre=  ","name":"","source":"OpenStreetMap (consulta 2026-09-30)"},"geometry":{"type":"Polygon","coordinates":[[[-74.1696747,4.6333216],[-74.1697491,4.6332812],[-74.1694341,4.6327199],[-74.1693562,4.6327644],[-74.1696747,4.6333216]]]}},{"type":"Feature","properties":{"osm_id":"645764430","pressure":"media","reason":"uso=retail; nombre=  ","name":"","source":"OpenStreetMap (consulta 2026-09-30)"},"geometry":{"type":"Polygon","coordinates":[[[-74.1700855,4.6340508],[-74.1701619,4.6340095],[-74.1700388,4.6337826],[-74.1699623,4.6338239],[-74.1700855,4.6340508]]]}},{"type":"Feature","properties":{"osm_id":"974843465","pressure":"media","reason":"edificio=commercial; nombre=  ","name":"","source":"OpenStreetMap (consulta 2026-09-30)"},"geometry":{"type":"Polygon","coordinates":[[[-74.1615841,4.6339547],[-74.1616444,4.6339728],[-74.1616666,4.6338805],[-74.1616079,4.6338681],[-74.1615841,4.6339547]]]}},{"type":"Feature","properties":{"osm_id":"974843467","pressure":"media","reason":"edificio=commercial; nombre=  ","name":"","source":"OpenStreetMap (consulta 2026-09-30)"},"geometry":{"type":"Polygon","coordinates":[[[-74.1617775,4.6342034],[-74.1616718,4.6341791],[-74.161694,4.6340576],[-74.1617034,4.6340062],[-74.161735,4.6338946],[-74.1618446,4.6339208],[-74.1617831,4.6341797],[-74.1617775,4.6342034]]]}},{"type":"Feature","properties":{"osm_id":"974845089","pressure":"media","reason":"edificio=commercial; nombre=  ","name":"","source":"OpenStreetMap (consulta 2026-09-30)"},"geometry":{"type":"Polygon","coordinates":[[[-74.1616718,4.6341791],[-74.1615994,4.6341639],[-74.1616256,4.6340355],[-74.161694,4.6340576],[-74.1616718,4.6341791]]]}},{"type":"Feature","properties":{"osm_id":"974845093","pressure":"media","reason":"edificio=commercial; nombre=  ","name":"","source":"OpenStreetMap (consulta 2026-09-30)"},"geometry":{"type":"Polygon","coordinates":[[[-74.1613952,4.6341178],[-74.161352,4.634108],[-74.1613895,4.6339288],[-74.1614472,4.6339369],[-74.1613952,4.6341178]]]}},{"type":"Feature","properties":{"osm_id":"974845098","pressure":"media","reason":"edificio=commercial; nombre=  ","name":"","source":"OpenStreetMap (consulta 2026-09-30)"},"geometry":{"type":"Polygon","coordinates":[[[-74.1610427,4.6340233],[-74.1609985,4.6340153],[-74.1610356,4.6338705],[-74.1610761,4.6338726],[-74.1610427,4.6340233]]]}},{"type":"Feature","properties":{"osm_id":"974845101","pressure":"media","reason":"edificio=retail; nombre=  ","name":"","source":"OpenStreetMap (consulta 2026-09-30)"},"geometry":{"type":"Polygon","coordinates":[[[-74.162797,4.6342727],[-74.1627221,4.6342561],[-74.1626906,4.6343838],[-74.1627637,4.6344027],[-74.162797,4.6342727]]]}},{"type":"Feature","properties":{"osm_id":"974845102","pressure":"media","reason":"edificio=retail; nombre=  ","name":"","source":"OpenStreetMap (consulta 2026-09-30)"},"geometry":{"type":"Polygon","coordinates":[[[-74.162797,4.6342727],[-74.1626693,4.6341184],[-74.1626367,4.6342328],[-74.1627221,4.6342561],[-74.162797,4.6342727]]]}},{"type":"Feature","properties":{"osm_id":"974845103","pressure":"media","reason":"edificio=retail; nombre=  ","name":"","source":"OpenStreetMap (consulta 2026-09-30)"},"geometry":{"type":"Polygon","coordinates":[[[-74.1626906,4.6343838],[-74.1626144,4.6343665],[-74.1626367,4.6342328],[-74.1627221,4.6342561],[-74.1626906,4.6343838]]]}},{"type":"Feature","properties":{"osm_id":"974848320","pressure":"media","reason":"edificio=retail; nombre=  ","name":"","source":"OpenStreetMap (consulta 2026-09-30)"},"geometry":{"type":"Polygon","coordinates":[[[-74.1626144,4.6343665],[-74.1625371,4.6343501],[-74.1625593,4.6342209],[-74.1626367,4.6342328],[-74.1626144,4.6343665]]]}},{"type":"Feature","properties":{"osm_id":"974848321","pressure":"media","reason":"edificio=retail; nombre=  ","name":"","source":"OpenStreetMap (consulta 2026-09-30)"},"geometry":{"type":"Polygon","coordinates":[[[-74.1625371,4.6343501],[-74.1624391,4.634328],[-74.1624636,4.634179],[-74.1625593,4.6342209],[-74.1625371,4.6343501]]]}},{"type":"Feature","properties":{"osm_id":"974848322","pressure":"media","reason":"edificio=retail; nombre=  ","name":"","source":"OpenStreetMap (consulta 2026-09-30)"},"geometry":{"type":"Polygon","coordinates":[[[-74.1624391,4.634328],[-74.1622698,4.6342942],[-74.1622884,4.6341255],[-74.1623488,4.6341416],[-74.1624239,4.6341616],[-74.1624636,4.634179],[-74.1624391,4.634328]]]}},{"type":"Feature","properties":{"osm_id":"974848323","pressure":"media","reason":"edificio=retail; nombre=  ","name":"","source":"OpenStreetMap (consulta 2026-09-30)"},"geometry":{"type":"Polygon","coordinates":[[[-74.1622698,4.6342942],[-74.1622016,4.6342805],[-74.162223,4.6341174],[-74.1622533,4.6341212],[-74.1622884,4.6341255],[-74.1622698,4.6342942]]]}},{"type":"Feature","properties":{"osm_id":"974848324","pressure":"media","reason":"edificio=retail; nombre=  ","name":"","source":"OpenStreetMap (consulta 2026-09-30)"},"geometry":{"type":"Polygon","coordinates":[[[-74.1622016,4.6342805],[-74.1621549,4.6342704],[-74.162163,4.6341529],[-74.1621854,4.6341499],[-74.1621904,4.6341184],[-74.162223,4.6341174],[-74.1622016,4.6342805]]]}},{"type":"Feature","properties":{"osm_id":"974848325","pressure":"media","reason":"edificio=retail; nombre=  ","name":"","source":"OpenStreetMap (consulta 2026-09-30)"},"geometry":{"type":"Polygon","coordinates":[[[-74.1621549,4.6342704],[-74.1620807,4.6342532],[-74.162103,4.6341387],[-74.162163,4.6341529],[-74.1621549,4.6342704]]]}},{"type":"Feature","properties":{"osm_id":"974848326","pressure":"media","reason":"edificio=retail; nombre=  ","name":"","source":"OpenStreetMap (consulta 2026-09-30)"},"geometry":{"type":"Polygon","coordinates":[[[-74.1620807,4.6342532],[-74.1620187,4.634239],[-74.1620421,4.6341296],[-74.162103,4.6341387],[-74.1620807,4.6342532]]]}},{"type":"Feature","properties":{"osm_id":"974848327","pressure":"media","reason":"edificio=retail; nombre=  ","name":"","source":"OpenStreetMap (consulta 2026-09-30)"},"geometry":{"type":"Polygon","coordinates":[[[-74.1620187,4.634239],[-74.1619597,4.6342248],[-74.1619953,4.6340587],[-74.1620543,4.6340779],[-74.1620421,4.6341296],[-74.1620187,4.634239]]]}},{"type":"Feature","properties":{"osm_id":"974848328","pressure":"media","reason":"edificio=retail; nombre=  ","name":"","source":"OpenStreetMap (consulta 2026-09-30)"},"geometry":{"type":"Polygon","coordinates":[[[-74.1619597,4.6342248],[-74.1618845,4.6342056],[-74.1619097,4.6340708],[-74.1619343,4.6339391],[-74.1620349,4.6339604],[-74.1620166,4.6340404],[-74.1619933,4.6340415],[-74.1619953,4.6340587],[-74.1619597,4.6342248]]]}},{"type":"Feature","properties":{"osm_id":"974848331","pressure":"media","reason":"edificio=retail; nombre=  ","name":"","source":"OpenStreetMap (consulta 2026-09-30)"},"geometry":{"type":"Polygon","coordinates":[[[-74.1626693,4.6341184],[-74.1626532,4.6340988],[-74.1624476,4.634052],[-74.1624239,4.6341616],[-74.1624636,4.634179],[-74.1625593,4.6342209],[-74.1626367,4.6342328],[-74.1626693,4.6341184]]]}},{"type":"Feature","properties":{"osm_id":"974848343","pressure":"media","reason":"edificio=retail; nombre=  ","name":"","source":"OpenStreetMap (consulta 2026-09-30)"},"geometry":{"type":"Polygon","coordinates":[[[-74.1620929,4.6343297],[-74.1620218,4.634312],[-74.161972,4.6344098],[-74.1619659,4.6344219],[-74.1619816,4.634434],[-74.1620929,4.6343297]]]}},{"type":"Feature","properties":{"osm_id":"974848344","pressure":"media","reason":"edificio=retail; nombre=  ","name":"","source":"OpenStreetMap (consulta 2026-09-30)"},"geometry":{"type":"Polygon","coordinates":[[[-74.1620218,4.634312],[-74.1619058,4.6342965],[-74.1618906,4.6343147],[-74.1618956,4.6343623],[-74.1618728,4.6343578],[-74.1618677,4.6343796],[-74.1619495,4.6344003],[-74.161972,4.6344098],[-74.1620218,4.634312]]]}},{"type":"Feature","properties":{"osm_id":"974848345","pressure":"media","reason":"edificio=retail; nombre=  ","name":"","source":"OpenStreetMap (consulta 2026-09-30)"},"geometry":{"type":"Polygon","coordinates":[[[-74.1619058,4.6342965],[-74.1618906,4.6343147],[-74.1618956,4.6343623],[-74.1618728,4.6343578],[-74.1618677,4.6343796],[-74.1618341,4.6343674],[-74.1617976,4.6343664],[-74.1617803,4.6343765],[-74.1617744,4.6343464],[-74.1617761,4.6343393],[-74.1618012,4.6343406],[-74.1618327,4.6342824],[-74.1619058,4.6342965]]]}},{"type":"Feature","properties":{"osm_id":"1088488785","pressure":"alta","reason":"comercio=supermarket; nombre=Ara  ","name":"Ara","source":"OpenStreetMap (consulta 2026-09-30)"},"geometry":{"type":"Polygon","coordinates":[[[-74.1676819,4.6312569],[-74.1675049,4.6313504],[-74.1674446,4.6312448],[-74.1675076,4.6311954],[-74.167444,4.6310752],[-74.1675486,4.6310017],[-74.1676819,4.6312569]]]}},{"type":"Feature","properties":{"osm_id":"83886246","pressure":"alta","reason":"uso=retail; comercio=mall; nombre=Tintal Plaza  ","name":"Tintal Plaza","source":"OpenStreetMap (consulta 2026-09-30)"},"geometry":{"type":"Polygon","coordinates":[[[-74.1571987,4.6427783],[-74.1562296,4.6434785],[-74.1561999,4.6434392],[-74.1561572,4.6433825],[-74.1561137,4.6433245],[-74.1560746,4.6432732],[-74.1560289,4.6432127],[-74.1559852,4.6431539],[-74.1559352,4.6430886],[-74.1558914,4.6430305],[-74.1558516,4.6429777],[-74.155803,4.6429134],[-74.1557537,4.6428481],[-74.1557455,4.64283],[-74.1556353,4.6426877],[-74.1555679,4.6426006],[-74.1555377,4.6425613],[-74.1555096,4.6425247],[-74.1553383,4.6422929],[-74.1556183,4.6420593],[-74.1554512,4.6418603],[-74.1557867,4.6418743],[-74.1558449,4.6418837],[-74.1562,4.6419412],[-74.1562617,4.6419311],[-74.1563341,4.6419191],[-74.1564275,4.64191],[-74.1565668,4.6418864],[-74.1571987,4.6427783]]]}},{"type":"Feature","properties":{"osm_id":"217584070","pressure":"alta","reason":"uso=commercial; nombre=  ","name":"","source":"OpenStreetMap (consulta 2026-09-30)"},"geometry":{"type":"Polygon","coordinates":[[[-74.1450383,4.6488936],[-74.145565,4.6494738],[-74.1462072,4.6488525],[-74.1458757,4.6484993],[-74.1461127,4.6482871],[-74.1459111,4.6480819],[-74.1450383,4.6488936]]]}},{"type":"Feature","properties":{"osm_id":"305169537","pressure":"media","reason":"uso=retail; nombre=Comercio Tabakú  ","name":"Comercio Tabakú","source":"OpenStreetMap (consulta 2026-09-30)"},"geometry":{"type":"Polygon","coordinates":[[[-74.1547769,4.638681],[-74.1542406,4.6376608],[-74.1541617,4.6376988],[-74.1546396,4.6386423],[-74.1545793,4.6387185],[-74.154641,4.6388094],[-74.1547769,4.638681]]]}},{"type":"Feature","properties":{"osm_id":"319609414","pressure":"alta","reason":"comercio=supermarket; nombre=Merkacol #1  ","name":"Merkacol #1","source":"OpenStreetMap (consulta 2026-09-30)"},"geometry":{"type":"Polygon","coordinates":[[[-74.1538283,4.6352063],[-74.1535475,4.63493],[-74.1537709,4.6347043],[-74.1544554,4.6340131],[-74.1547364,4.6342896],[-74.1538283,4.6352063]]]}},{"type":"Feature","properties":{"osm_id":"319611800","pressure":"alta","reason":"comercio=supermarket; nombre=Merkacol #3  ","name":"Merkacol #3","source":"OpenStreetMap (consulta 2026-09-30)"},"geometry":{"type":"Polygon","coordinates":[[[-74.1476176,4.6481523],[-74.1475362,4.6480661],[-74.1473513,4.6478703],[-74.1475434,4.6476901],[-74.1478097,4.647972],[-74.1476176,4.6481523]]]}},{"type":"Feature","properties":{"osm_id":"352332948","pressure":"alta","reason":"comercio=supermarket; nombre=Autoservicio  ","name":"Autoservicio","source":"OpenStreetMap (consulta 2026-09-30)"},"geometry":{"type":"Polygon","coordinates":[[[-74.1528529,4.6361371],[-74.1527937,4.6361965],[-74.1527462,4.636244],[-74.1526758,4.6361741],[-74.1527825,4.6360673],[-74.1528529,4.6361371]]]}},{"type":"Feature","properties":{"osm_id":"484155691","pressure":"alta","reason":"comercio=supermarket; nombre=  ","name":"","source":"OpenStreetMap (consulta 2026-09-30)"},"geometry":{"type":"Polygon","coordinates":[[[-74.1571401,4.6427539],[-74.1569773,4.6428703],[-74.156887,4.6427482],[-74.1569365,4.6427131],[-74.1570005,4.6426694],[-74.1570498,4.6426357],[-74.1571401,4.6427539]]]}},{"type":"Feature","properties":{"osm_id":"484155703","pressure":"alta","reason":"edificio=warehouse; nombre=  ","name":"","source":"OpenStreetMap (consulta 2026-09-30)"},"geometry":{"type":"Polygon","coordinates":[[[-74.1567487,4.6429448],[-74.1566828,4.642993],[-74.1566206,4.6430383],[-74.1565649,4.643079],[-74.1565065,4.6431216],[-74.156554,4.6431772],[-74.1567914,4.6430021],[-74.1567487,4.6429448]]]}},{"type":"Feature","properties":{"osm_id":"498450718","pressure":"alta","reason":"edificio=commercial; comercio=mall; nombre=Centro Comercial Ciudad Tintal  ","name":"Centro Comercial Ciudad Tintal","source":"OpenStreetMap (consulta 2026-09-30)"},"geometry":{"type":"Polygon","coordinates":[[[-74.1596135,4.6531104],[-74.1594535,4.652811],[-74.1602159,4.6524081],[-74.1602648,4.6524726],[-74.1600909,4.6526608],[-74.1599984,4.6525925],[-74.1596232,4.6529422],[-74.1596765,4.6530477],[-74.1596135,4.6531104]]]}},{"type":"Feature","properties":{"osm_id":"538616459","pressure":"alta","reason":"uso=industrial; nombre=  ","name":"","source":"OpenStreetMap (consulta 2026-09-30)"},"geometry":{"type":"Polygon","coordinates":[[[-74.1462709,4.650808],[-74.145882,4.6506022],[-74.1470783,4.6493778],[-74.1474779,4.6497761],[-74.1462709,4.650808]]]}},{"type":"Feature","properties":{"osm_id":"543151539","pressure":"media","reason":"edificio=retail; nombre=  ","name":"","source":"OpenStreetMap (consulta 2026-09-30)"},"geometry":{"type":"Polygon","coordinates":[[[-74.1550497,4.6375522],[-74.1550008,4.6374547],[-74.1551172,4.6373966],[-74.1551662,4.6374942],[-74.1550497,4.6375522]]]}},{"type":"Feature","properties":{"osm_id":"543151540","pressure":"media","reason":"edificio=commercial; nombre=  ","name":"","source":"OpenStreetMap (consulta 2026-09-30)"},"geometry":{"type":"Polygon","coordinates":[[[-74.1551248,4.6373249],[-74.1549855,4.6373939],[-74.1548766,4.6371756],[-74.1550159,4.6371066],[-74.1551248,4.6373249]]]}},{"type":"Feature","properties":{"osm_id":"543151541","pressure":"media","reason":"edificio=commercial; nombre=  ","name":"","source":"OpenStreetMap (consulta 2026-09-30)"},"geometry":{"type":"Polygon","coordinates":[[[-74.1545706,4.6366086],[-74.1545038,4.6365017],[-74.1545955,4.6364448],[-74.1546623,4.6365517],[-74.1545706,4.6366086]]]}},{"type":"Feature","properties":{"osm_id":"543189351","pressure":"media","reason":"edificio=commercial; nombre=  ","name":"","source":"OpenStreetMap (consulta 2026-09-30)"},"geometry":{"type":"Polygon","coordinates":[[[-74.160045,4.6369639],[-74.1599981,4.6369136],[-74.1599203,4.6369858],[-74.1599673,4.6370361],[-74.160045,4.6369639]]]}},{"type":"Feature","properties":{"osm_id":"543189352","pressure":"media","reason":"edificio=commercial; nombre=  ","name":"","source":"OpenStreetMap (consulta 2026-09-30)"},"geometry":{"type":"Polygon","coordinates":[[[-74.1589321,4.6379811],[-74.1590549,4.6378732],[-74.1588808,4.6376762],[-74.1587579,4.6377841],[-74.1589321,4.6379811]]]}},{"type":"Feature","properties":{"osm_id":"543191405","pressure":"alta","reason":"edificio=warehouse; comercio=greengrocer; nombre=Isfruits  ","name":"Isfruits","source":"OpenStreetMap (consulta 2026-09-30)"},"geometry":{"type":"Polygon","coordinates":[[[-74.1587219,4.637904],[-74.1586163,4.637787],[-74.1584488,4.6379372],[-74.1585544,4.6380542],[-74.1587219,4.637904]]]}},{"type":"Feature","properties":{"osm_id":"543195321","pressure":"media","reason":"edificio=retail; nombre=  ","name":"","source":"OpenStreetMap (consulta 2026-09-30)"},"geometry":{"type":"Polygon","coordinates":[[[-74.1569585,4.6370807],[-74.1570075,4.63705],[-74.1569732,4.6369958],[-74.1569242,4.6370264],[-74.1569585,4.6370807]]]}},{"type":"Feature","properties":{"osm_id":"543195324","pressure":"media","reason":"edificio=retail; nombre=  ","name":"","source":"OpenStreetMap (consulta 2026-09-30)"},"geometry":{"type":"Polygon","coordinates":[[[-74.1573632,4.6367724],[-74.1573138,4.6367134],[-74.1574268,4.6366193],[-74.1574397,4.6366347],[-74.1574762,4.6366783],[-74.1573632,4.6367724]]]}},{"type":"Feature","properties":{"osm_id":"543202609","pressure":"alta","reason":"comercio=supermarket; nombre=La Pamplonesa Supermercado  ","name":"La Pamplonesa Supermercado","source":"OpenStreetMap (consulta 2026-09-30)"},"geometry":{"type":"Polygon","coordinates":[[[-74.1481045,4.6395454],[-74.1480475,4.6396249],[-74.1480897,4.639655],[-74.1481467,4.6395755],[-74.1481045,4.6395454]]]}},{"type":"Feature","properties":{"osm_id":"749067348","pressure":"alta","reason":"uso=commercial; nombre=  ","name":"","source":"OpenStreetMap (consulta 2026-09-30)"},"geometry":{"type":"Polygon","coordinates":[[[-74.1518514,4.645764],[-74.1513956,4.6454812],[-74.1514181,4.6454417],[-74.1513601,4.6453479],[-74.1510622,4.6456332],[-74.1509797,4.6456972],[-74.1509823,4.645764],[-74.150918,4.6458255],[-74.151103,4.6460447],[-74.1512479,4.6459511],[-74.1515536,4.6459886],[-74.1518514,4.645764]]]}},{"type":"Feature","properties":{"osm_id":"961789721","pressure":"alta","reason":"uso=commercial; nombre=Sala de Ventas Marval  ","name":"Sala de Ventas Marval","source":"OpenStreetMap (consulta 2026-09-30)"},"geometry":{"type":"Polygon","coordinates":[[[-74.147752,4.6487586],[-74.148285,4.6482608],[-74.1484708,4.6484891],[-74.1484983,4.6487481],[-74.1482859,4.6492125],[-74.147752,4.6487586]]]}},{"type":"Feature","properties":{"osm_id":"26696807","pressure":"alta","reason":"comercio=supermarket; nombre=Surti Mayorista  ","name":"Surti Mayorista","source":"OpenStreetMap (consulta 2026-09-30)"},"geometry":{"type":"Polygon","coordinates":[[[-74.1410991,4.6404914],[-74.1407727,4.6403222],[-74.1409264,4.6400034],[-74.1412469,4.640177],[-74.1410991,4.6404914]]]}},{"type":"Feature","properties":{"osm_id":"75590200","pressure":"alta","reason":"comercio=supermarket; nombre=Zapatoca  ","name":"Zapatoca","source":"OpenStreetMap (consulta 2026-09-30)"},"geometry":{"type":"Polygon","coordinates":[[[-74.1401662,4.6400284],[-74.1403038,4.6397331],[-74.1399882,4.6395592],[-74.1398472,4.6398699],[-74.1401662,4.6400284]]]}},{"type":"Feature","properties":{"osm_id":"217581557","pressure":"alta","reason":"uso=commercial; nombre=  ","name":"","source":"OpenStreetMap (consulta 2026-09-30)"},"geometry":{"type":"Polygon","coordinates":[[[-74.1414068,4.656718],[-74.1411171,4.6569425],[-74.1411976,4.6570548],[-74.1414873,4.6568196],[-74.1414068,4.656718]]]}},{"type":"Feature","properties":{"osm_id":"217581559","pressure":"alta","reason":"uso=commercial; nombre=INETRAN SA  ","name":"INETRAN SA","source":"OpenStreetMap (consulta 2026-09-30)"},"geometry":{"type":"Polygon","coordinates":[[[-74.1422195,4.6551356],[-74.1421252,4.6552051],[-74.1420033,4.6550408],[-74.1420977,4.6549713],[-74.1422195,4.6551356]]]}},{"type":"Feature","properties":{"osm_id":"217581561","pressure":"alta","reason":"uso=industrial; nombre=  ","name":"","source":"OpenStreetMap (consulta 2026-09-30)"},"geometry":{"type":"Polygon","coordinates":[[[-74.1431648,4.6584351],[-74.1423448,4.6573975],[-74.1408536,4.6555108],[-74.1413668,4.6551078],[-74.1437295,4.6580151],[-74.1435162,4.6581737],[-74.1431648,4.6584351]]]}},{"type":"Feature","properties":{"osm_id":"217581567","pressure":"alta","reason":"uso=commercial; nombre=  ","name":"","source":"OpenStreetMap (consulta 2026-09-30)"},"geometry":{"type":"Polygon","coordinates":[[[-74.1420757,4.6549531],[-74.1415968,4.6553463],[-74.1413574,4.6550566],[-74.1418363,4.6546634],[-74.1420757,4.6549531]]]}},{"type":"Feature","properties":{"osm_id":"217581568","pressure":"alta","reason":"uso=commercial; nombre=Navitrans  ","name":"Navitrans","source":"OpenStreetMap (consulta 2026-09-30)"},"geometry":{"type":"Polygon","coordinates":[[[-74.140758,4.6564484],[-74.1405725,4.6562035],[-74.1409622,4.6559101],[-74.1411478,4.656155],[-74.140758,4.6564484]]]}},{"type":"Feature","properties":{"osm_id":"217581570","pressure":"alta","reason":"uso=industrial; nombre=Navitrans  ","name":"Navitrans","source":"OpenStreetMap (consulta 2026-09-30)"},"geometry":{"type":"Polygon","coordinates":[[[-74.1417416,4.6578264],[-74.1403178,4.6559801],[-74.1407877,4.6555873],[-74.1408384,4.6555449],[-74.1422975,4.6573892],[-74.1417416,4.6578264]]]}},{"type":"Feature","properties":{"osm_id":"217581572","pressure":"alta","reason":"uso=commercial; nombre=  ","name":"","source":"OpenStreetMap (consulta 2026-09-30)"},"geometry":{"type":"Polygon","coordinates":[[[-74.1428982,4.6562419],[-74.1425763,4.6558445],[-74.1422306,4.6561228],[-74.1425525,4.6565202],[-74.1428982,4.6562419]]]}},{"type":"Feature","properties":{"osm_id":"217581579","pressure":"alta","reason":"uso=commercial; nombre=  ","name":"","source":"OpenStreetMap (consulta 2026-09-30)"},"geometry":{"type":"Polygon","coordinates":[[[-74.1415968,4.6553463],[-74.1420757,4.6549531],[-74.1422382,4.6551473],[-74.1417547,4.6555385],[-74.1415968,4.6553463]]]}},{"type":"Feature","properties":{"osm_id":"217581580","pressure":"alta","reason":"uso=commercial; nombre=  ","name":"","source":"OpenStreetMap (consulta 2026-09-30)"},"geometry":{"type":"Polygon","coordinates":[[[-74.1434535,4.6553391],[-74.143235,4.6554928],[-74.1431608,4.6556216],[-74.1432961,4.6556798],[-74.1432524,4.6557962],[-74.1428579,4.6556272],[-74.1429425,4.6554765],[-74.1433516,4.6552081],[-74.1434535,4.6553391]]]}},{"type":"Feature","properties":{"osm_id":"217581582","pressure":"alta","reason":"uso=commercial; nombre=  ","name":"","source":"OpenStreetMap (consulta 2026-09-30)"},"geometry":{"type":"Polygon","coordinates":[[[-74.1410959,4.6570687],[-74.1409028,4.6571968],[-74.1404844,4.6566624],[-74.1405344,4.6566214],[-74.1406668,4.6565127],[-74.1410959,4.6570687]]]}},{"type":"Feature","properties":{"osm_id":"217584074","pressure":"alta","reason":"uso=commercial; nombre=  ","name":"","source":"OpenStreetMap (consulta 2026-09-30)"},"geometry":{"type":"Polygon","coordinates":[[[-74.1404522,4.6566624],[-74.140082,4.6569404],[-74.1396204,4.6564186],[-74.1396636,4.6563683],[-74.1400482,4.6567584],[-74.1402027,4.6566702],[-74.1403368,4.6565503],[-74.1404522,4.6566624]]]}},{"type":"Feature","properties":{"osm_id":"217584085","pressure":"alta","reason":"uso=industrial; nombre=  ","name":"","source":"OpenStreetMap (consulta 2026-09-30)"},"geometry":{"type":"Polygon","coordinates":[[[-74.1447451,4.6510217],[-74.1442438,4.6505026],[-74.1438597,4.6501049],[-74.1434925,4.6497246],[-74.1434085,4.6496376],[-74.1430255,4.6500051],[-74.1443624,4.6513889],[-74.1447451,4.6510217]]]}},{"type":"Feature","properties":{"osm_id":"217696983","pressure":"alta","reason":"uso=commercial; nombre=  ","name":"","source":"OpenStreetMap (consulta 2026-09-30)"},"geometry":{"type":"Polygon","coordinates":[[[-74.1418802,4.6556965],[-74.1423673,4.6553094],[-74.1422382,4.6551473],[-74.1417547,4.6555385],[-74.1418802,4.6556965]]]}},{"type":"Feature","properties":{"osm_id":"217696986","pressure":"alta","reason":"uso=commercial; nombre=  ","name":"","source":"OpenStreetMap (consulta 2026-09-30)"},"geometry":{"type":"Polygon","coordinates":[[[-74.1420474,4.6558968],[-74.1425267,4.6555111],[-74.1423673,4.6553094],[-74.1418802,4.6556965],[-74.1420474,4.6558968]]]}},{"type":"Feature","properties":{"osm_id":"217698688","pressure":"media","reason":"edificio=retail; nombre=  ","name":"","source":"OpenStreetMap (consulta 2026-09-30)"},"geometry":{"type":"Polygon","coordinates":[[[-74.1375823,4.6586812],[-74.1379958,4.6583093],[-74.1378498,4.6581481],[-74.1374363,4.65852],[-74.1375823,4.6586812]]]}},{"type":"Feature","properties":{"osm_id":"217698689","pressure":"alta","reason":"uso=commercial; nombre=  ","name":"","source":"OpenStreetMap (consulta 2026-09-30)"},"geometry":{"type":"Polygon","coordinates":[[[-74.1383493,4.6576566],[-74.1385746,4.6574534],[-74.1386658,4.657571],[-74.1384512,4.6577665],[-74.1383493,4.6576566]]]}},{"type":"Feature","properties":{"osm_id":"217698692","pressure":"media","reason":"edificio=retail; nombre=  ","name":"","source":"OpenStreetMap (consulta 2026-09-30)"},"geometry":{"type":"Polygon","coordinates":[[[-74.1376649,4.658788],[-74.1381176,4.6584001],[-74.1382552,4.6585595],[-74.1378025,4.6589475],[-74.1376649,4.658788]]]}},{"type":"Feature","properties":{"osm_id":"217698694","pressure":"alta","reason":"uso=industrial; nombre=  ","name":"","source":"OpenStreetMap (consulta 2026-09-30)"},"geometry":{"type":"Polygon","coordinates":[[[-74.1375339,4.6609181],[-74.1382313,4.6602711],[-74.1371638,4.6592285],[-74.1369486,4.6594279],[-74.1370505,4.6595058],[-74.1367725,4.6598358],[-74.1368205,4.6599022],[-74.1367829,4.6600335],[-74.1375339,4.6609181]]]}},{"type":"Feature","properties":{"osm_id":"411152095","pressure":"alta","reason":"comercio=convenience; nombre=  ","name":"","source":"OpenStreetMap (consulta 2026-09-30)"},"geometry":{"type":"Polygon","coordinates":[[[-74.142408,4.6430996],[-74.1423692,4.6430716],[-74.1424201,4.6429967],[-74.1424684,4.6430234],[-74.142408,4.6430996]]]}},{"type":"Feature","properties":{"osm_id":"411152116","pressure":"alta","reason":"comercio=convenience; nombre=Comerca  ","name":"Comerca","source":"OpenStreetMap (consulta 2026-09-30)"},"geometry":{"type":"Polygon","coordinates":[[[-74.1419691,4.6427442],[-74.1419309,4.6427135],[-74.1419818,4.6426373],[-74.1420214,4.6426694],[-74.1419691,4.6427442]]]}},{"type":"Feature","properties":{"osm_id":"411159451","pressure":"alta","reason":"comercio=convenience; nombre=El vecino express  ","name":"El vecino express","source":"OpenStreetMap (consulta 2026-09-30)"},"geometry":{"type":"Polygon","coordinates":[[[-74.1438417,4.643133],[-74.1438819,4.6430789],[-74.1438229,4.6430415],[-74.143782,4.6430963],[-74.1438417,4.643133]]]}},{"type":"Feature","properties":{"osm_id":"411159453","pressure":"alta","reason":"comercio=convenience; nombre=Salsamentaria Las Torres  ","name":"Salsamentaria Las Torres","source":"OpenStreetMap (consulta 2026-09-30)"},"geometry":{"type":"Polygon","coordinates":[[[-74.1439723,4.6429498],[-74.143916,4.6429171],[-74.1439448,4.642879],[-74.1440004,4.6429117],[-74.1439723,4.6429498]]]}},{"type":"Feature","properties":{"osm_id":"411159455","pressure":"alta","reason":"comercio=convenience; nombre=Cigarreria El tesoro del castillo  ","name":"Cigarreria El tesoro del castillo","source":"OpenStreetMap (consulta 2026-09-30)"},"geometry":{"type":"Polygon","coordinates":[[[-74.1440004,4.6429117],[-74.1439448,4.642879],[-74.1439662,4.6428523],[-74.1440192,4.6428783],[-74.1440004,4.6429117]]]}},{"type":"Feature","properties":{"osm_id":"422716771","pressure":"alta","reason":"uso=industrial; nombre=  ","name":"","source":"OpenStreetMap (consulta 2026-09-30)"},"geometry":{"type":"Polygon","coordinates":[[[-74.1351454,4.6579702],[-74.1352695,4.657874],[-74.1353602,4.6577606],[-74.1355631,4.6575938],[-74.1358997,4.6572892],[-74.1362633,4.6577028],[-74.1359694,4.65797],[-74.1355076,4.6583732],[-74.1351454,4.6579702]]]}},{"type":"Feature","properties":{"osm_id":"422716774","pressure":"alta","reason":"edificio=industrial; nombre=  ","name":"","source":"OpenStreetMap (consulta 2026-09-30)"},"geometry":{"type":"Polygon","coordinates":[[[-74.1359058,4.6573039],[-74.1352695,4.657874],[-74.1353238,4.6579455],[-74.1354862,4.6578011],[-74.1356659,4.6580043],[-74.1358495,4.6578412],[-74.1359694,4.65797],[-74.1362633,4.6577028],[-74.1359058,4.6573039]]]}},{"type":"Feature","properties":{"osm_id":"422720439","pressure":"alta","reason":"uso=industrial; nombre=  ","name":"","source":"OpenStreetMap (consulta 2026-09-30)"},"geometry":{"type":"Polygon","coordinates":[[[-74.1347819,4.6575659],[-74.1349609,4.6577625],[-74.1351454,4.6579702],[-74.1352695,4.657874],[-74.1353602,4.6577606],[-74.1355631,4.6575938],[-74.1358997,4.6572892],[-74.1354625,4.6568989],[-74.135364,4.6569944],[-74.1347819,4.6575659]]]}},{"type":"Feature","properties":{"osm_id":"422720441","pressure":"alta","reason":"edificio=warehouse; nombre=  ","name":"","source":"OpenStreetMap (consulta 2026-09-30)"},"geometry":{"type":"Polygon","coordinates":[[[-74.1352694,4.6572732],[-74.1354518,4.657094],[-74.135364,4.6569944],[-74.1354625,4.6568989],[-74.1358997,4.6572892],[-74.1355631,4.6575938],[-74.1352694,4.6572732]]]}},{"type":"Feature","properties":{"osm_id":"422720450","pressure":"alta","reason":"edificio=warehouse; nombre=  ","name":"","source":"OpenStreetMap (consulta 2026-09-30)"},"geometry":{"type":"Polygon","coordinates":[[[-74.1346905,4.6571542],[-74.1348147,4.6572835],[-74.1350663,4.6570435],[-74.1351742,4.6569405],[-74.13505,4.6568111],[-74.1346905,4.6571542]]]}},{"type":"Feature","properties":{"osm_id":"422720456","pressure":"alta","reason":"edificio=warehouse; nombre=  ","name":"","source":"OpenStreetMap (consulta 2026-09-30)"},"geometry":{"type":"Polygon","coordinates":[[[-74.1353398,4.6567697],[-74.1354242,4.6568548],[-74.1352755,4.6570013],[-74.1351911,4.6569162],[-74.1353398,4.6567697]]]}},{"type":"Feature","properties":{"osm_id":"477212454","pressure":"media","reason":"uso=retail; nombre=Hipercentro de Carnes San Martin  ","name":"Hipercentro de Carnes San Martin","source":"OpenStreetMap (consulta 2026-09-30)"},"geometry":{"type":"Polygon","coordinates":[[[-74.1375903,4.6576942],[-74.1373059,4.6579517],[-74.1372754,4.6579709],[-74.1373747,4.6582088],[-74.1373961,4.6587996],[-74.1376487,4.6589661],[-74.1378305,4.6590371],[-74.1380061,4.6590897],[-74.1384433,4.6586726],[-74.1383581,4.6585502],[-74.1378237,4.6579642],[-74.1377861,4.6580658],[-74.1377502,4.6581126],[-74.1377146,4.6580634],[-74.1376627,4.6580203],[-74.1377298,4.6579375],[-74.1377325,4.657868],[-74.1375903,4.6576942]]]}},{"type":"Feature","properties":{"osm_id":"543152313","pressure":"alta","reason":"uso=commercial; nombre=Super Cárnicos  ","name":"Super Cárnicos","source":"OpenStreetMap (consulta 2026-09-30)"},"geometry":{"type":"Polygon","coordinates":[[[-74.1379906,4.6560223],[-74.1373002,4.6552586],[-74.1372632,4.6552177],[-74.1369455,4.6555335],[-74.1376618,4.6563014],[-74.1379906,4.6560223]]]}},{"type":"Feature","properties":{"osm_id":"543154508","pressure":"alta","reason":"uso=industrial; nombre=Parque Industrial Alsacia  ","name":"Parque Industrial Alsacia","source":"OpenStreetMap (consulta 2026-09-30)"},"geometry":{"type":"Polygon","coordinates":[[[-74.1377933,4.649885],[-74.1374104,4.6496162],[-74.1368049,4.6492046],[-74.1365665,4.6490465],[-74.1365425,4.6490188],[-74.1365377,4.6489768],[-74.1378303,4.6476834],[-74.1382235,4.6480743],[-74.1386218,4.6484849],[-74.1389443,4.6488299],[-74.1377933,4.649885]]]}},{"type":"Feature","properties":{"osm_id":"543154509","pressure":"media","reason":"edificio=commercial; nombre=  ","name":"","source":"OpenStreetMap (consulta 2026-09-30)"},"geometry":{"type":"Polygon","coordinates":[[[-74.1369328,4.6545739],[-74.1368491,4.654651],[-74.1368951,4.6547006],[-74.1369788,4.6546234],[-74.1369328,4.6545739]]]}},{"type":"Feature","properties":{"osm_id":"543154513","pressure":"media","reason":"edificio=commercial; nombre=  ","name":"","source":"OpenStreetMap (consulta 2026-09-30)"},"geometry":{"type":"Polygon","coordinates":[[[-74.1370616,4.6549899],[-74.1369752,4.6550664],[-74.1368932,4.6549745],[-74.1369796,4.654898],[-74.1370616,4.6549899]]]}},{"type":"Feature","properties":{"osm_id":"543192206","pressure":"alta","reason":"comercio=supermarket; nombre=Visioón de Colombia Supermercado  ","name":"Visioón de Colombia Supermercado","source":"OpenStreetMap (consulta 2026-09-30)"},"geometry":{"type":"Polygon","coordinates":[[[-74.1356827,4.6516242],[-74.1356466,4.6516602],[-74.1356812,4.6516947],[-74.1357173,4.6516587],[-74.1356827,4.6516242]]]}},{"type":"Feature","properties":{"osm_id":"543194752","pressure":"media","reason":"edificio=commercial; nombre=  ","name":"","source":"OpenStreetMap (consulta 2026-09-30)"},"geometry":{"type":"Polygon","coordinates":[[[-74.1368064,4.654717],[-74.1368427,4.6547564],[-74.1367666,4.6548259],[-74.1367303,4.6547866],[-74.1368064,4.654717]]]}},{"type":"Feature","properties":{"osm_id":"543194753","pressure":"media","reason":"edificio=commercial; nombre=  ","name":"","source":"OpenStreetMap (consulta 2026-09-30)"},"geometry":{"type":"Polygon","coordinates":[[[-74.1388156,4.6535533],[-74.1388934,4.6536357],[-74.1388435,4.6536825],[-74.1387657,4.6536001],[-74.1388156,4.6535533]]]}},{"type":"Feature","properties":{"osm_id":"543194754","pressure":"media","reason":"edificio=commercial; nombre=  ","name":"","source":"OpenStreetMap (consulta 2026-09-30)"},"geometry":{"type":"Polygon","coordinates":[[[-74.139089,4.6538264],[-74.1390009,4.6539072],[-74.139077,4.6539895],[-74.1391651,4.6539087],[-74.139089,4.6538264]]]}},{"type":"Feature","properties":{"osm_id":"543194755","pressure":"media","reason":"edificio=commercial; nombre=Club De Tejo  ","name":"Club De Tejo","source":"OpenStreetMap (consulta 2026-09-30)"},"geometry":{"type":"Polygon","coordinates":[[[-74.1395057,4.6542778],[-74.1394258,4.6543486],[-74.1395317,4.6544674],[-74.1396116,4.6543966],[-74.1395057,4.6542778]]]}},{"type":"Feature","properties":{"osm_id":"543194756","pressure":"media","reason":"edificio=commercial; nombre=  ","name":"","source":"OpenStreetMap (consulta 2026-09-30)"},"geometry":{"type":"Polygon","coordinates":[[[-74.1385514,4.6523288],[-74.1385055,4.6524149],[-74.1385992,4.6524646],[-74.1386452,4.6523785],[-74.1385514,4.6523288]]]}},{"type":"Feature","properties":{"osm_id":"543194757","pressure":"media","reason":"edificio=commercial; nombre=  ","name":"","source":"OpenStreetMap (consulta 2026-09-30)"},"geometry":{"type":"Polygon","coordinates":[[[-74.1385095,4.6522964],[-74.1384018,4.6522497],[-74.1383615,4.6523418],[-74.1384543,4.6523821],[-74.1384692,4.6523886],[-74.1385095,4.6522964]]]}},{"type":"Feature","properties":{"osm_id":"543194758","pressure":"media","reason":"edificio=commercial; nombre=  ","name":"","source":"OpenStreetMap (consulta 2026-09-30)"},"geometry":{"type":"Polygon","coordinates":[[[-74.1378823,4.6520579],[-74.1380751,4.6521486],[-74.1380379,4.6522271],[-74.1378756,4.6521508],[-74.1378595,4.6521062],[-74.1378823,4.6520579]]]}},{"type":"Feature","properties":{"osm_id":"543194759","pressure":"media","reason":"edificio=commercial; nombre=  ","name":"","source":"OpenStreetMap (consulta 2026-09-30)"},"geometry":{"type":"Polygon","coordinates":[[[-74.1377842,4.6519805],[-74.1377359,4.6520763],[-74.1377901,4.6521034],[-74.1378383,4.6520076],[-74.1377842,4.6519805]]]}},{"type":"Feature","properties":{"osm_id":"543194760","pressure":"alta","reason":"comercio=supermarket; nombre=Gran Fruver La Huerta  ","name":"Gran Fruver La Huerta","source":"OpenStreetMap (consulta 2026-09-30)"},"geometry":{"type":"Polygon","coordinates":[[[-74.137321,4.6517869],[-74.1372622,4.6517578],[-74.1372059,4.6518712],[-74.1372646,4.6519002],[-74.137321,4.6517869]]]}},{"type":"Feature","properties":{"osm_id":"543202484","pressure":"media","reason":"edificio=commercial; actividad=casino; nombre=  ","name":"","source":"OpenStreetMap (consulta 2026-09-30)"},"geometry":{"type":"Polygon","coordinates":[[[-74.1376195,4.6510913],[-74.1375213,4.651046],[-74.1374771,4.6511412],[-74.1375752,4.6511865],[-74.1376195,4.6510913]]]}},{"type":"Feature","properties":{"osm_id":"543202485","pressure":"media","reason":"edificio=commercial; nombre=  ","name":"","source":"OpenStreetMap (consulta 2026-09-30)"},"geometry":{"type":"Polygon","coordinates":[[[-74.1380419,4.6512403],[-74.1379272,4.6514458],[-74.1380004,4.6514864],[-74.1381151,4.6512809],[-74.1380419,4.6512403]]]}},{"type":"Feature","properties":{"osm_id":"543202486","pressure":"media","reason":"edificio=commercial; nombre=  ","name":"","source":"OpenStreetMap (consulta 2026-09-30)"},"geometry":{"type":"Polygon","coordinates":[[[-74.1381892,4.6513209],[-74.1382347,4.6513433],[-74.1381814,4.6514509],[-74.1381359,4.6514285],[-74.1381892,4.6513209]]]}},{"type":"Feature","properties":{"osm_id":"543202488","pressure":"media","reason":"edificio=commercial; nombre=  ","name":"","source":"OpenStreetMap (consulta 2026-09-30)"},"geometry":{"type":"Polygon","coordinates":[[[-74.1370104,4.6536819],[-74.1369651,4.6537246],[-74.1370424,4.653806],[-74.1370698,4.6537802],[-74.137077,4.6537672],[-74.1370781,4.6537529],[-74.1370104,4.6536819]]]}},{"type":"Feature","properties":{"osm_id":"543202489","pressure":"media","reason":"edificio=commercial; nombre=  ","name":"","source":"OpenStreetMap (consulta 2026-09-30)"},"geometry":{"type":"Polygon","coordinates":[[[-74.1386036,4.653009],[-74.1384889,4.6531137],[-74.1383978,4.6530146],[-74.1385125,4.6529099],[-74.1386036,4.653009]]]}},{"type":"Feature","properties":{"osm_id":"674136126","pressure":"media","reason":"edificio=commercial; nombre=  ","name":"","source":"OpenStreetMap (consulta 2026-09-30)"},"geometry":{"type":"Polygon","coordinates":[[[-74.1407864,4.6422232],[-74.1407033,4.6422513],[-74.1406456,4.6420828],[-74.1407261,4.6420508],[-74.1407864,4.6422232]]]}},{"type":"Feature","properties":{"osm_id":"1179883665","pressure":"alta","reason":"uso=industrial; nombre=  ","name":"","source":"OpenStreetMap (consulta 2026-09-30)"},"geometry":{"type":"Polygon","coordinates":[[[-74.1369071,4.6570325],[-74.1371131,4.6568302],[-74.1363706,4.6560793],[-74.1361647,4.6562815],[-74.1369071,4.6570325]]]}},{"type":"Feature","properties":{"osm_id":"1179883667","pressure":"alta","reason":"uso=industrial; nombre=  ","name":"","source":"OpenStreetMap (consulta 2026-09-30)"},"geometry":{"type":"Polygon","coordinates":[[[-74.1371748,4.6567524],[-74.1364811,4.6560258],[-74.1373002,4.6552586],[-74.1386242,4.6565934],[-74.1380009,4.6570787],[-74.1375502,4.6566647],[-74.1373874,4.6564974],[-74.1371748,4.6567524]]]}},{"type":"Feature","properties":{"osm_id":"1179883668","pressure":"alta","reason":"uso=industrial; nombre=  ","name":"","source":"OpenStreetMap (consulta 2026-09-30)"},"geometry":{"type":"Polygon","coordinates":[[[-74.1386306,4.6565332],[-74.1381333,4.6559889],[-74.1396803,4.6545844],[-74.1401779,4.6551291],[-74.1386306,4.6565332]]]}},{"type":"Feature","properties":{"osm_id":"1179883674","pressure":"media","reason":"uso=retail; nombre=  ","name":"","source":"OpenStreetMap (consulta 2026-09-30)"},"geometry":{"type":"Polygon","coordinates":[[[-74.1381879,4.6525709],[-74.1372492,4.6521379],[-74.1373243,4.6520149],[-74.1383194,4.6524239],[-74.1381879,4.6525709]]]}},{"type":"Feature","properties":{"osm_id":"1179883676","pressure":"media","reason":"uso=retail; nombre=  ","name":"","source":"OpenStreetMap (consulta 2026-09-30)"},"geometry":{"type":"Polygon","coordinates":[[[-74.1371942,4.653794],[-74.1371781,4.6537726],[-74.1384602,4.6524947],[-74.1385621,4.6525215],[-74.1371942,4.653794]]]}},{"type":"Feature","properties":{"osm_id":"1179883677","pressure":"media","reason":"uso=retail; nombre=  ","name":"","source":"OpenStreetMap (consulta 2026-09-30)"},"geometry":{"type":"Polygon","coordinates":[[[-74.1386023,4.6525242],[-74.1385621,4.6525696],[-74.1395492,4.6529385],[-74.1395679,4.6529198],[-74.1386023,4.6525242]]]}},{"type":"Feature","properties":{"osm_id":"1179883682","pressure":"alta","reason":"uso=industrial; nombre=  ","name":"","source":"OpenStreetMap (consulta 2026-09-30)"},"geometry":{"type":"Polygon","coordinates":[[[-74.1406738,4.6547646],[-74.140034,4.6542247],[-74.1407824,4.6534988],[-74.1410756,4.6535995],[-74.1409717,4.6537107],[-74.1406048,4.6540423],[-74.1410017,4.6544512],[-74.1410384,4.6544889],[-74.1406738,4.6547646]]]}},{"type":"Feature","properties":{"osm_id":"1179883683","pressure":"alta","reason":"uso=industrial; nombre=  ","name":"","source":"OpenStreetMap (consulta 2026-09-30)"},"geometry":{"type":"Polygon","coordinates":[[[-74.140461,4.6520329],[-74.1404082,4.6520829],[-74.1374383,4.650909],[-74.1377983,4.6504899],[-74.1385699,4.6510245],[-74.1391981,4.6513076],[-74.140461,4.6520329]]]}},{"type":"Feature","properties":{"osm_id":"1179883684","pressure":"alta","reason":"uso=commercial; nombre=  ","name":"","source":"OpenStreetMap (consulta 2026-09-30)"},"geometry":{"type":"Polygon","coordinates":[[[-74.1393112,4.6526899],[-74.1386591,4.6523742],[-74.1390023,4.6516698],[-74.1396544,4.6519856],[-74.1393112,4.6526899]]]}},{"type":"Feature","properties":{"osm_id":"1295805211","pressure":"alta","reason":"edificio=industrial; nombre=  ","name":"","source":"OpenStreetMap (consulta 2026-09-30)"},"geometry":{"type":"Polygon","coordinates":[[[-74.1414732,4.6565111],[-74.1413005,4.6562904],[-74.1409161,4.6565892],[-74.1410889,4.6568099],[-74.1414732,4.6565111]]]}},{"type":"Feature","properties":{"osm_id":"1529762990","pressure":"alta","reason":"uso=industrial; nombre=Antigua Fábrica de Cervecería Bavaria S.A.  ","name":"Antigua Fábrica de Cervecería Bavaria S.A.","source":"OpenStreetMap (consulta 2026-09-30)"},"geometry":{"type":"Polygon","coordinates":[[[-74.1372102,4.6330244],[-74.1370584,4.6340859],[-74.1369297,4.6349328],[-74.1368438,4.6355488],[-74.1367408,4.6359423],[-74.1366892,4.6361501],[-74.1365263,4.6368063],[-74.1364339,4.6370365],[-74.1362859,4.6374052],[-74.1360199,4.6381152],[-74.1356322,4.6389251],[-74.1351573,4.6398284],[-74.1350882,4.6399773],[-74.1350033,4.640107],[-74.1343899,4.6410441],[-74.1339943,4.6416484],[-74.1331016,4.6427007],[-74.1326531,4.6431986],[-74.1325962,4.6432255],[-74.1325298,4.6432385],[-74.1324542,4.6432328],[-74.1323762,4.6432131],[-74.1313826,4.6429642],[-74.1313014,4.6429493],[-74.1312285,4.6429469],[-74.1311697,4.6429564],[-74.1310931,4.6429808],[-74.1309801,4.6429913],[-74.1308718,4.6429598],[-74.1307729,4.6429004],[-74.1307112,4.6427991],[-74.1303838,4.6422677],[-74.1300863,4.6417092],[-74.1296742,4.6409803],[-74.1296099,4.6408274],[-74.1295623,4.6406833],[-74.1294616,4.6405152],[-74.129339,4.6403641],[-74.1292223,4.6402387],[-74.1290954,4.6400446],[-74.1286154,4.6391903],[-74.1278842,4.637979],[-74.130149,4.6357455],[-74.133703,4.6328619],[-74.1338387,4.6327673],[-74.1339438,4.6327299],[-74.1340543,4.6327085],[-74.1362105,4.6329213],[-74.1372102,4.6330244]]]}}]}